SAR-LUPE 2              
1 31797U 07030A   26156.72033234  .00023157  00000+0  43799-3 0  9993
2 31797  98.1028 259.7508 0008790 155.9734 204.1927 15.48379249 55165
SAPPHIRE                
1 39088U 13009C   26156.72860186  .00000109  00000+0  53259-4 0  9996
2 39088  98.4258 336.4568 0010005 284.7456  75.2621 14.35237322694939
PRAETORIAN SDA_602      
1 65565U 25203A   26156.38761293  .00000055  00000+0  38881-4 0  9999
2 65565  81.3039  21.7000 0005219 218.7987 141.2796 13.84341906 37067
PRAETORIAN SDA_603      
1 65566U 25203B   26156.33827222  .00000104  00000+0  82844-4 0  9993
2 65566  81.3044  21.6541 0008803 221.6065 138.4423 13.83904389 37069
PRAETORIAN SDA_604      
1 65567U 25203C   26156.06127334  .00000124  00000+0  10256-3 0  9990
2 65567  81.3062  22.3039 0004727 228.0714 132.0040 13.83046294 37004
PRAETORIAN SDA_605      
1 65568U 25203D   26156.31928473  .00000079  00000+0  61121-4 0  9999
2 65568  81.3025  21.7399 0007499 217.3154 142.7482 13.83433390 37054
PRAETORIAN SDA_606      
1 65569U 25203E   26156.37392691  .00000091  00000+0  71588-4 0  9995
2 65569  81.3062  21.9061 0005146 215.2729 144.8088 13.83406423 37058
PRAETORIAN SDA_607      
1 65570U 25203F   26156.31715958  .00000121  00000+0  97409-4 0  9990
2 65570  81.3049  21.6397 0008048 222.3735 137.6800 13.84284308 37064
PRAETORIAN SDA_608      
1 65571U 25203G   26156.36285670  .00000091  00000+0  71780-4 0  9999
2 65571  81.3014  21.7550 0005237 225.9568 134.1158 13.83815862 37050
PRAETORIAN SDA_609      
1 65572U 25203H   26156.37147045  .00000166  00000+0  13828-3 0  9995
2 65572  81.3057  21.7325 0006263 218.7562 141.3146 13.84284941 37069
PRAETORIAN SDA_610      
1 65573U 25203J   26156.34291110  .00000054  00000+0  38386-4 0  9999
2 65573  81.3015  21.7319 0005906 223.3033 136.7660 13.83851043 37055
PRAETORIAN SDA_611      
1 65574U 25203K   26156.33904811  .00000174  00000+0  14780-3 0  9992
2 65574  81.3015  21.8916 0004875 230.3800 129.6926 13.83308311 37044
PRAETORIAN SDA_612      
1 65575U 25203L   26156.34344453  .00000230  00000+0  19271-3 0  9997
2 65575  81.3036  21.5027 0008594 220.8939 139.1575 13.85038338 37077
PRAETORIAN SDA_613      
1 65576U 25203M   26156.34113645  .00000056  00000+0  40453-4 0  9998
2 65576  81.3008  21.8772 0004999 218.4809 141.5991 13.82764195 37041
PRAETORIAN SDA_614      
1 65577U 25203N   26156.33039473  .00000088  00000+0  67330-4 0  9992
2 65577  81.3022  21.5897 0006451 218.0966 141.9735 13.84777655 37078
PRAETORIAN SDA_615      
1 65578U 25203P   26156.37662409  .00000202  00000+0  16992-3 0  9993
2 65578  81.3033  21.5033 0008374 219.4626 140.5921 13.84436112 37079
PRAETORIAN SDA_616      
1 65579U 25203Q   26156.33790718  .00000178  00000+0  15139-3 0  9999
2 65579  81.3068  22.0295 0004826 229.6899 130.3836 13.83267916 37049
PRAETORIAN SDA_617      
1 65580U 25203R   26156.06915127  .00000101  00000+0  81905-4 0  9995
2 65580  81.3045  22.1105 0006686 219.2760 140.7911 13.83149903 37016
PRAETORIAN SDA_618      
1 65581U 25203S   26156.34466204  .00000172  00000+0  14239-3 0  9997
2 65581  81.3028  21.4673 0009074 221.9618 138.0844 13.84668599 37075
PRAETORIAN SDA_619      
1 65582U 25203T   26156.37322367  .00000211  00000+0  17995-3 0  9998
2 65582  81.3054  21.7189 0007486 219.7049 140.3561 13.83804618 37691
PRAETORIAN SDA_620      
1 65583U 25203U   26156.32729975  .00000168  00000+0  14111-3 0  9998
2 65583  81.3041  21.7807 0006992 214.7197 145.3504 13.83617064 37054
PRAETORIAN SDA_621      
1 65584U 25203V   26156.37495994  .00000097  00000+0  76825-4 0  9997
2 65584  81.3029  21.6589 0006770 212.1851 147.8893 13.83800313 37060
PRAETORIAN SDA_601      
1 65585U 25203W   26156.34018553 -.00000070  00000+0 -74691-4 0  9999
2 65585  81.3044  21.9746 0004766 231.4399 128.6331 13.83166031 37044
